{
  "type": "FeatureCollection",
  "features": [
    {
      "type": "Feature",
      "properties": {
        "norad_id": 34582,
        "name": "COSMOS 2251 DEB",
        "group": "cosmos-2251-debris",
        "lat": 7.924426708301514,
        "lon": -71.53603951991849,
        "alt_km": 719.885471264356,
        "timestamp": "2025-12-05T07:38:19.240000+00:00",
        "meta_object_name": "COSMOS 2251 DEB",
        "meta_object_id": "1993-036VU",
        "meta_epoch": "2025-12-04T06:38:50.500032",
        "meta_mean_motion": 14.43254978,
        "meta_eccentricity": 0.0047383,
        "meta_inclination": 74.0199,
        "meta_ra_of_asc_node": 288.1134,
        "meta_arg_of_pericenter": 40.2581,
        "meta_mean_anomaly": 320.2068,
        "meta_ephemeris_type": 0,
        "meta_classification_type": "U",
        "meta_norad_cat_id": 34582,
        "meta_element_set_no": 999,
        "meta_rev_at_epoch": 87825,
        "meta_bstar": 0.0017656,
        "meta_mean_motion_dot": 6.003e-05,
        "meta_mean_motion_ddot": 0,
        "tle_line1": "1 34582U 93036VU  25338.27697338  .00006003  00000+0  17656-2 0  9994",
        "tle_line2": "2 34582  74.0199 288.1134 0047383  40.2581 320.2068 14.43254978878254"
      },
      "geometry": {
        "type": "Point",
        "coordinates": [
          -71.53603951991849,
          7.924426708301514
        ]
      }
    },
    {
      "type": "Feature",
      "properties": {
        "norad_id": 34588,
        "name": "COSMOS 2251 DEB",
        "group": "cosmos-2251-debris",
        "lat": 72.11836546542851,
        "lon": 39.5372292969332,
        "alt_km": 751.9496079583269,
        "timestamp": "2025-12-05T07:38:19.240011+00:00",
        "meta_object_name": "COSMOS 2251 DEB",
        "meta_object_id": "1993-036WA",
        "meta_epoch": "2025-12-04T06:45:20.718720",
        "meta_mean_motion": 14.41978345,
        "meta_eccentricity": 0.0018933,
        "meta_inclination": 74.0438,
        "meta_ra_of_asc_node": 283.9272,
        "meta_arg_of_pericenter": 337.5079,
        "meta_mean_anomaly": 140.5225,
        "meta_ephemeris_type": 0,
        "meta_classification_type": "U",
        "meta_norad_cat_id": 34588,
        "meta_element_set_no": 999,
        "meta_rev_at_epoch": 87828,
        "meta_bstar": 0.001096,
        "meta_mean_motion_dot": 3.577e-05,
        "meta_mean_motion_ddot": 0,
        "tle_line1": "1 34588U 93036WA  25338.28148980  .00003577  00000+0  10960-2 0  9999",
        "tle_line2": "2 34588  74.0438 283.9272 0018933 337.5079 140.5225 14.41978345878285"
      },
      "geometry": {
        "type": "Point",
        "coordinates": [
          39.5372292969332,
          72.11836546542851
        ]
      }
    },
    {
      "type": "Feature",
      "properties": {
        "norad_id": 34589,
        "name": "COSMOS 2251 DEB",
        "group": "cosmos-2251-debris",
        "lat": -5.9571818229502576,
        "lon": 66.95275779305902,
        "alt_km": 771.725799483158,
        "timestamp": "2025-12-05T07:38:19.240021+00:00",
        "meta_object_name": "COSMOS 2251 DEB",
        "meta_object_id": "1993-036WB",
        "meta_epoch": "2025-12-04T16:24:19.082016",
        "meta_mean_motion": 13.86044118,
        "meta_eccentricity": 0.0251655,
        "meta_inclination": 73.9245,
        "meta_ra_of_asc_node": 69.7581,
        "meta_arg_of_pericenter": 14.7216,
        "meta_mean_anomaly": 54.2278,
        "meta_ephemeris_type": 0,
        "meta_classification_type": "U",
        "meta_norad_cat_id": 34589,
        "meta_element_set_no": 999,
        "meta_rev_at_epoch": 84600,
        "meta_bstar": 0.00040059,
        "meta_mean_motion_dot": 5.67e-06,
        "meta_mean_motion_ddot": 0,
        "tle_line1": "1 34589U 93036WB  25338.68355419  .00000567  00000+0  40059-3 0  9990",
        "tle_line2": "2 34589  73.9245  69.7581 0251655  14.7216  54.2278 13.86044118846004"
      },
      "geometry": {
        "type": "Point",
        "coordinates": [
          66.95275779305902,
          -5.9571818229502576
        ]
      }
    },
    {
      "type": "Feature",
      "properties": {
        "norad_id": 34590,
        "name": "COSMOS 2251 DEB",
        "group": "cosmos-2251-debris",
        "lat": -53.234168456941326,
        "lon": -45.92345952797872,
        "alt_km": 763.1302663720753,
        "timestamp": "2025-12-05T07:38:19.240031+00:00",
        "meta_object_name": "COSMOS 2251 DEB",
        "meta_object_id": "1993-036WC",
        "meta_epoch": "2025-12-03T18:43:59.825856",
        "meta_mean_motion": 14.54808943,
        "meta_eccentricity": 0.00680312,
        "meta_inclination": 74.0436,
        "meta_ra_of_asc_node": 339.4993,
        "meta_arg_of_pericenter": 111.7106,
        "meta_mean_anomaly": 61.8791,
        "meta_ephemeris_type": 0,
        "meta_classification_type": "U",
        "meta_norad_cat_id": 34590,
        "meta_element_set_no": 999,
        "meta_rev_at_epoch": 88990,
        "meta_bstar": 0.0001775441,
        "meta_mean_motion_dot": 7.56e-06,
        "meta_mean_motion_ddot": 0,
        "tle_line1": "1 34590U 93036WC  25337.78055354  .00000756  00000+0  17754-3 0  9993",
        "tle_line2": "2 34590  74.0436 339.4993 0068031 111.7106  61.8791 14.54808943889904"
      },
      "geometry": {
        "type": "Point",
        "coordinates": [
          -45.92345952797872,
          -53.234168456941326
        ]
      }
    },
    {
      "type": "Feature",
      "properties": {
        "norad_id": 34609,
        "name": "COSMOS 2251 DEB",
        "group": "cosmos-2251-debris",
        "lat": -50.396575865399875,
        "lon": -39.046775994339654,
        "alt_km": 856.236053797058,
        "timestamp": "2025-12-05T07:38:19.240042+00:00",
        "meta_object_name": "COSMOS 2251 DEB",
        "meta_object_id": "1993-036WE",
        "meta_epoch": "2025-12-04T04:22:41.667744",
        "meta_mean_motion": 14.21744513,
        "meta_eccentricity": 0.01445162,
        "meta_inclination": 73.7304,
        "meta_ra_of_asc_node": 122.3599,
        "meta_arg_of_pericenter": 343.2721,
        "meta_mean_anomaly": 200.2574,
        "meta_ephemeris_type": 0,
        "meta_classification_type": "U",
        "meta_norad_cat_id": 34609,
        "meta_element_set_no": 999,
        "meta_rev_at_epoch": 86510,
        "meta_bstar": 0.0011438967,
        "meta_mean_motion_dot": 2.77e-05,
        "meta_mean_motion_ddot": 0,
        "tle_line1": "1 34609U 93036WE  25338.18242671  .00002770  00000+0  11439-2 0  9990",
        "tle_line2": "2 34609  73.7304 122.3599 0144516 343.2721 200.2574 14.21744513865104"
      },
      "geometry": {
        "type": "Point",
        "coordinates": [
          -39.046775994339654,
          -50.396575865399875
        ]
      }
    },
    {
      "type": "Feature",
      "properties": {
        "norad_id": 34610,
        "name": "COSMOS 2251 DEB",
        "group": "cosmos-2251-debris",
        "lat": 68.64410471258901,
        "lon": -37.54013339534548,
        "alt_km": 747.1551165850451,
        "timestamp": "2025-12-05T07:38:19.240052+00:00",
        "meta_object_name": "COSMOS 2251 DEB",
        "meta_object_id": "1993-036WF",
        "meta_epoch": "2025-12-04T12:31:16.375584",
        "meta_mean_motion": 14.06957866,
        "meta_eccentricity": 0.0180026,
        "meta_inclination": 74.0195,
        "meta_ra_of_asc_node": 276.7285,
        "meta_arg_of_pericenter": 49.1144,
        "meta_mean_anomaly": 312.5431,
        "meta_ephemeris_type": 0,
        "meta_classification_type": "U",
        "meta_norad_cat_id": 34610,
        "meta_element_set_no": 999,
        "meta_rev_at_epoch": 85444,
        "meta_bstar": 0.0044727,
        "meta_mean_motion_dot": 8.631e-05,
        "meta_mean_motion_ddot": 0,
        "tle_line1": "1 34610U 93036WF  25338.52171731  .00008631  00000+0  44727-2 0  9996",
        "tle_line2": "2 34610  74.0195 276.7285 0180026  49.1144 312.5431 14.06957866854445"
      },
      "geometry": {
        "type": "Point",
        "coordinates": [
          -37.54013339534548,
          68.64410471258901
        ]
      }
    },
    {
      "type": "Feature",
      "properties": {
        "norad_id": 34611,
        "name": "COSMOS 2251 DEB",
        "group": "cosmos-2251-debris",
        "lat": -73.23055507167746,
        "lon": 6.929724379769844,
        "alt_km": 674.7053367113585,
        "timestamp": "2025-12-05T07:38:19.240063+00:00",
        "meta_object_name": "COSMOS 2251 DEB",
        "meta_object_id": "1993-036WG",
        "meta_epoch": "2025-12-04T15:48:43.379424",
        "meta_mean_motion": 14.69246047,
        "meta_eccentricity": 0.0023753,
        "meta_inclination": 74.0529,
        "meta_ra_of_asc_node": 116.601,
        "meta_arg_of_pericenter": 160.885,
        "meta_mean_anomaly": 217.0434,
        "meta_ephemeris_type": 0,
        "meta_classification_type": "U",
        "meta_norad_cat_id": 34611,
        "meta_element_set_no": 999,
        "meta_rev_at_epoch": 88272,
        "meta_bstar": 0.0042696,
        "meta_mean_motion_dot": 0.00025345,
        "meta_mean_motion_ddot": 0,
        "tle_line1": "1 34611U 93036WG  25338.65883541  .00025345  00000+0  42696-2 0  9994",
        "tle_line2": "2 34611  74.0529 116.6010 0023753 160.8850 217.0434 14.69246047882728"
      },
      "geometry": {
        "type": "Point",
        "coordinates": [
          6.929724379769844,
          -73.23055507167746
        ]
      }
    }
  ]
}